IRIDIUM 159             
1 43578U 18061K   24349.77915060 -.00000023  00000+0 -15146-4 0  9997
2 43578  86.3953 286.2815 0002115  86.8377 273.3061 14.34217074334637
IRIDIUM 180             
1 43922U 19002A   24350.12749417  .00000546  00000+0  18800-3 0  9995
2 43922  86.3987 223.0100 0002003  84.1591 275.9833 14.34217834310338
IRIDIUM 176             
1 43923U 19002B   24349.64011389  .00001801  00000+0  28170-3 0  9997
2 43923  86.6115 223.2209 0003071  76.4747 283.6813 14.72257059318393
IRIDIUM 168             
1 43924U 19002C   24350.40021946  .00000517  00000+0  17761-3 0  9991
2 43924  86.3987 222.9578 0002028  85.2464 274.8964 14.34214166310311
IRIDIUM 173             
1 43925U 19002D   24350.38753364  .00000377  00000+0  12770-3 0  9994
2 43925  86.3988 222.8747 0002005  82.4278 277.7145 14.34218484310306
IRIDIUM 169             
1 43926U 19002E   24349.90077617  .00000742  00000+0  23609-3 0  9990
2 43926  86.4228 254.6911 0002515  41.3903 318.7486 14.38604698311255
IRIDIUM 172             
1 43927U 19002F   24350.10211815  .00000172  00000+0  54327-4 0  9994
2 43927  86.3985 222.9998 0002138  85.9084 274.2357 14.34218084310262
IRIDIUM 175             
1 43928U 19002G   24349.90657948  .00000516  00000+0  77868-4 0  9999
2 43928  86.1525 186.0981 0000909  49.0099 311.1196 14.72230659318426
